{
    "links": {
        "self": "http://www.neowsapp.com/rest/v1/neo/3986733?api_key=iIulBulltgU6a56xZRHN4H3l9WmuAYTsLGpBGhQ2"
    },
    "id": "3986733",
    "neo_reference_id": "3986733",
    "name": "(2020 BQ)",
    "designation": "2020 BQ",
    "nasa_jpl_url": "http://ssd.jpl.nasa.gov/sbdb.cgi?sstr=3986733",
    "absolute_magnitude_h": 24.668,
    "estimated_diameter": {
        "kilometers": {
            "estimated_diameter_min": 0.0309709821,
            "estimated_diameter_max": 0.0692532212
        },
        "meters": {
            "estimated_diameter_min": 30.970982058,
            "estimated_diameter_max": 69.2532212116
        },
        "miles": {
            "estimated_diameter_min": 0.0192444701,
            "estimated_diameter_max": 0.0430319433
        },
        "feet": {
            "estimated_diameter_min": 101.6108367752,
            "estimated_diameter_max": 227.2087382799
        }
    },
    "is_potentially_hazardous_asteroid": false,
    "close_approach_data": [
        {
            "close_approach_date": "2020-01-18",
            "close_approach_date_full": "2020-Jan-18 16:48",
            "epoch_date_close_approach": 1579366080000,
            "relative_velocity": {
                "kilometers_per_second": "17.5510972181",
                "kilometers_per_hour": "63183.949985282",
                "miles_per_hour": "39260.0493672437"
            },
            "miss_distance": {
                "astronomical": "0.0324559866",
                "lunar": "12.6253787874",
                "kilometers": "4855346.464108542",
                "miles": "3016972.3939281996"
            },
            "orbiting_body": "Earth"
        }
    ],
    "orbital_data": {
        "orbit_id": "2",
        "orbit_determination_date": "2020-03-01 05:06:42",
        "first_observation_date": "2020-01-18",
        "last_observation_date": "2020-01-26",
        "data_arc_in_days": 8,
        "observations_used": 54,
        "orbit_uncertainty": "8",
        "minimum_orbit_intersection": ".0295467",
        "jupiter_tisserand_invariant": "4.394",
        "epoch_osculation": "2458870.5",
        "eccentricity": ".3219635178767732",
        "semi_major_axis": "1.475662324380876",
        "inclination": "30.62079881270648",
        "ascending_node_longitude": "117.9282073762539",
        "orbital_period": "654.7551315448446",
        "perihelion_distance": "1.000552891224993",
        "perihelion_argument": "18.81688784499064",
        "aphelion_distance": "1.950771757536759",
        "perihelion_time": "2458883.330789923232",
        "mean_anomaly": "352.945325435686",
        "mean_motion": ".5498238694985217",
        "equinox": "J2000",
        "orbit_class": {
            "orbit_class_type": "APO",
            "orbit_class_description": "Near-Earth asteroid orbits which cross the Earth’s orbit similar to that of 1862 Apollo",
            "orbit_class_range": "a (semi-major axis) > 1.0 AU; q (perihelion) < 1.017 AU"
        }
    },
    "is_sentry_object": false
}